CTC2_L_00614007-03
1 10062U 25925PB  26075.70049769  .00000000  00000+0  00000-0 0  9993
2 10062  70.0000 180.0000 0000000   0.0000 144.0000  5.31014043    18
CTC2_L_00614007-04
1 10063U 26620WB  26075.70049769  .00000000  00000+0  00000-0 0  9997
2 10063  70.0000 180.0000 0000000   0.0000 180.0000  5.31014043    19
CTC2_L_00614007-05
1 10064U 22074LO  26075.70049769  .00000000  00000+0  00000-0 0  9997
2 10064  70.0000 180.0000 0000000   0.0000 216.0000  5.31014043    10
CTC2_L_00614007-06
1 10065U 24079JT  26075.70049769  .00000000  00000+0  00000-0 0  9995
2 10065  70.0000 180.0000 0000000   0.0000 252.0000  5.31014043    11
CTC2_L_00614007-07
1 10066U 22772LK  26075.70049769  .00000000  00000+0  00000-0 0  9994
2 10066  70.0000 180.0000 0000000   0.0000 288.0000  5.31014043    11
CTC2_L_00614007-08
1 10067U 25235FL  26075.70049769  .00000000  00000+0  00000-0 0  9992
2 10067  70.0000 180.0000 0000000   0.0000 324.0000  5.31014043    13
CTC2_L_00614007-09
1 10068U 23645ND  26075.70049769  .00000000  00000+0  00000-0 0  9996
2 10068  70.0000 180.0000 0000000   0.0000   0.0000  5.31014043    15
CTC2_L_00614007-10
1 10069U 25959GT  26075.70049769  .00000000  00000+0  00000-0 0  9997
2 10069  70.0000 180.0000 0000000   0.0000  36.0000  5.31014043    15
CTC2_L_00614008-01
1 10070U 23166GD  26075.70049769  .00000000  00000+0  00000-0 0  9997
2 10070  70.0000 210.0000 0000000   0.0000  84.0000  5.31014043    14
CTC2_L_00614008-02
1 10071U 26728EH  26075.70049769  .00000000  00000+0  00000-0 0  9995
2 10071  70.0000 210.0000 0000000   0.0000 120.0000  5.31014043    16
CTC2_L_00614008-03
1 10072U 24740IB  26075.70049769  .00000000  00000+0  00000-0 0  9998
2 10072  70.0000 210.0000 0000000   0.0000 156.0000  5.31014043    16
CTC2_L_00614008-04
1 10073U 25970TB  26075.70049769  .00000000  00000+0  00000-0 0  9995
2 10073  70.0000 210.0000 0000000   0.0000 192.0000  5.31014043    17
CTC2_L_00614008-05
1 10074U 25696PT  26075.70049769  .00000000  00000+0  00000-0 0  9991
2 10074  70.0000 210.0000 0000000   0.0000 228.0000  5.31014043    18
CTC2_L_00614008-06
1 10075U 26823HP  26075.70049769  .00000000  00000+0  00000-0 0  9995
2 10075  70.0000 210.0000 0000000   0.0000 264.0000  5.31014043    19
CTC2_L_00614008-07
1 10076U 24709JX  26075.70049769  .00000000  00000+0  00000-0 0  9997
2 10076  70.0000 210.0000 0000000   0.0000 300.0000  5.31014043    11
CTC2_L_00614008-08
1 10077U 26432PA  26075.70049769  .00000000  00000+0  00000-0 0  9993
2 10077  70.0000 210.0000 0000000   0.0000 336.0000  5.31014043    11
CTC2_L_00614008-09
1 10078U 23091ZX  26075.70049769  .00000000  00000+0  00000-0 0  9992
2 10078  70.0000 210.0000 0000000   0.0000  12.0000  5.31014043    13
CTC2_L_00614008-10
1 10079U 25328WJ  26075.70049769  .00000000  00000+0  00000-0 0  9998
2 10079  70.0000 210.0000 0000000   0.0000  48.0000  5.31014043    13
CTC2_L_00614009-01
1 10080U 25271MU  26075.70049769  .00000000  00000+0  00000-0 0  9997
2 10080  70.0000 240.0000 0000000   0.0000  96.0000  5.31014043    11
CTC2_L_00614009-02
1 10081U 24131G   26075.70049769  .00000000  00000+0  00000-0 0  9992
2 10081  70.0000 240.0000 0000000   0.0000 132.0000  5.31014043    13
CTC2_L_00614009-03
1 10082U 24753IY  26075.70049769  .00000000  00000+0  00000-0 0  9993
2 10082  70.0000 240.0000 0000000   0.0000 168.0000  5.31014043    13
CTC2_L_00614009-04
1 10083U 26468PT  26075.70049769  .00000000  00000+0  00000-0 0  9999
2 10083  70.0000 240.0000 0000000   0.0000 204.0000  5.31014043    15
CTC2_L_00614009-05
1 10084U 23084QK  26075.70049769  .00000000  00000+0  00000-0 0  9991
2 10084  70.0000 240.0000 0000000   0.0000 240.0000  5.31014043    16
CTC2_L_00614009-06
1 10085U 23542IL  26075.70049769  .00000000  00000+0  00000-0 0  9991
2 10085  70.0000 240.0000 0000000   0.0000 276.0000  5.31014043    16
CTC2_L_00614009-07
1 10086U 26294DJ  26075.70049769  .00000000  00000+0  00000-0 0  9999
2 10086  70.0000 240.0000 0000000   0.0000 312.0000  5.31014043    18
CTC2_L_00614009-08
1 10087U 25266FA  26075.70049769  .00000000  00000+0  00000-0 0  9998
2 10087  70.0000 240.0000 0000000   0.0000 348.0000  5.31014043    18
CTC2_L_00614009-09
1 10088U 23701WG  26075.70049769  .00000000  00000+0  00000-0 0  9991
2 10088  70.0000 240.0000 0000000   0.0000  24.0000  5.31014043    10
CTC2_L_00614009-10
1 10089U 26663WN  26075.70049769  .00000000  00000+0  00000-0 0  9992
2 10089  70.0000 240.0000 0000000   0.0000  60.0000  5.31014043    11
CTC2_L_00614010-01
1 10090U 23924DM  26075.70049769  .00000000  00000+0  00000-0 0  9991
2 10090  70.0000 270.0000 0000000   0.0000 108.0000  5.31014043    19
CTC2_L_00614010-02
1 10091U 26550TA  26075.70049769  .00000000  00000+0  00000-0 0  9990
2 10091  70.0000 270.0000 0000000   0.0000 144.0000  5.31014043    10
CTC2_L_00614010-03
1 10092U 22688OI  26075.70049769  .00000000  00000+0  00000-0 0  9999
2 10092  70.0000 270.0000 0000000   0.0000 180.0000  5.31014043    11
CTC2_L_00614010-04
1 10093U 23189WL  26075.70049769  .00000000  00000+0  00000-0 0  9997
2 10093  70.0000 270.0000 0000000   0.0000 216.0000  5.31014043    12
CTC2_L_00614010-05
1 10094U 22177BE  26075.70049769  .00000000  00000+0  00000-0 0  9994
2 10094  70.0000 270.0000 0000000   0.0000 252.0000  5.31014043    13
CTC2_L_00614010-06
1 10095U 26648HK  26075.70049769  .00000000  00000+0  00000-0 0  9992
2 10095  70.0000 270.0000 0000000   0.0000 288.0000  5.31014043    13
CTC2_L_00614010-07
1 10096U 22139YH  26075.70049769  .00000000  00000+0  00000-0 0  9994
2 10096  70.0000 270.0000 0000000   0.0000 324.0000  5.31014043    15
CTC2_L_00614010-08
1 10097U 22220TI  26075.70049769  .00000000  00000+0  00000-0 0  9996
2 10097  70.0000 270.0000 0000000   0.0000   0.0000  5.31014043    17
CTC2_L_00614010-09
1 10098U 24375JJ  26075.70049769  .00000000  00000+0  00000-0 0  9990
2 10098  70.0000 270.0000 0000000   0.0000  36.0000  5.31014043    17
CTC2_L_00614010-10
1 10099U 25570CN  26075.70049769  .00000000  00000+0  00000-0 0  9999
2 10099  70.0000 270.0000 0000000   0.0000  72.0000  5.31014043    18
CTC2_L_00614011-01
1 10100U 22024KX  26075.70049769  .00000000  00000+0  00000-0 0  9993
2 10100  70.0000 300.0000 0000000   0.0000 120.0000  5.31014043    19
CTC2_L_00614011-02
1 10101U 23097KQ  26075.70049769  .00000000  00000+0  00000-0 0  9995
2 10101  70.0000 300.0000 0000000   0.0000 156.0000  5.31014043    19
CTC2_L_00614011-03
1 10102U 24195ZL  26075.70049769  .00000000  00000+0  00000-0 0  9996
2 10102  70.0000 300.0000 0000000   0.0000 192.0000  5.31014043    10
CTC2_L_00614011-04
1 10103U 26408D   26075.70049769  .00000000  00000+0  00000-0 0  9996
2 10103  70.0000 300.0000 0000000   0.0000 228.0000  5.31014043    11
CTC2_L_00614011-05
1 10104U 24999LC  26075.70049769  .00000000  00000+0  00000-0 0  9990
2 10104  70.0000 300.0000 0000000   0.0000 264.0000  5.31014043    12
CTC2_L_00614011-06
1 10105U 26711UN  26075.70049769  .00000000  00000+0  00000-0 0  9995
2 10105  70.0000 300.0000 0000000   0.0000 300.0000  5.31014043    14
CTC2_L_00614011-07
1 10106U 25263KL  26075.70049769  .00000000  00000+0  00000-0 0  9997
2 10106  70.0000 300.0000 0000000   0.0000 336.0000  5.31014043    14
CTC2_L_00614011-08
1 10107U 25081PH  26075.70049769  .00000000  00000+0  00000-0 0  9996
2 10107  70.0000 300.0000 0000000   0.0000  12.0000  5.31014043    16
CTC2_L_00614011-09
1 10108U 25865MH  26075.70049769  .00000000  00000+0  00000-0 0  9997
2 10108  70.0000 300.0000 0000000   0.0000  48.0000  5.31014043    16
CTC2_L_00614011-10
1 10109U 24099EK  26075.70049769  .00000000  00000+0  00000-0 0  9996
2 10109  70.0000 300.0000 0000000   0.0000  84.0000  5.31014043    17
CTC2_L_00614012-01
1 10110U 22721LM  26075.70049769  .00000000  00000+0  00000-0 0  9998
2 10110  70.0000 330.0000 0000000   0.0000 132.0000  5.31014043    16
CTC2_L_00614012-02
1 10111U 25374YF  26075.70049769  .00000000  00000+0  00000-0 0  9996
2 10111  70.0000 330.0000 0000000   0.0000 168.0000  5.31014043    16
CTC2_L_00614012-03
1 10112U 23244DQ  26075.70049769  .00000000  00000+0  00000-0 0  9991
2 10112  70.0000 330.0000 0000000   0.0000 204.0000  5.31014043    18
CTC2_L_00614012-04
1 10113U 25715EL  26075.70049769  .00000000  00000+0  00000-0 0  9997
2 10113  70.0000 330.0000 0000000   0.0000 240.0000  5.31014043    19
CTC2_L_00614012-05
1 10114U 23789OE  26075.70049769  .00000000  00000+0  00000-0 0  9997
2 10114  70.0000 330.0000 0000000   0.0000 276.0000  5.31014043    19
CTC2_L_00614012-06
1 10115U 24211CH  26075.70049769  .00000000  00000+0  00000-0 0  9999
2 10115  70.0000 330.0000 0000000   0.0000 312.0000  5.31014043    11
CTC2_L_00614012-07
1 10116U 23513NL  26075.70049769  .00000000  00000+0  00000-0 0  9994
2 10116  70.0000 330.0000 0000000   0.0000 348.0000  5.31014043    11
CTC2_L_00614012-08
1 10117U 26011ZK  26075.70049769  .00000000  00000+0  00000-0 0  9991
2 10117  70.0000 330.0000 0000000   0.0000  24.0000  5.31014043    13
CTC2_L_00614012-09
1 10118U 22931NS  26075.70049769  .00000000  00000+0  00000-0 0  9999
2 10118  70.0000 330.0000 0000000   0.0000  60.0000  5.31014043    14
CTC2_L_00614012-10
1 10119U 26274JS  26075.70049769  .00000000  00000+0  00000-0 0  9994
2 10119  70.0000 330.0000 0000000   0.0000  96.0000  5.31014043    14
